COSMOS 2433 (720)       
1 32275U 07052A   22157.78122940 -.00000044  00000+0  00000+0 0  9990
2 32275  66.0835   5.0231 0000272 236.7798 116.6197  2.13104194113734
COSMOS 2432 (719)       
1 32276U 07052B   22157.96728172 -.00000043  00000+0  00000+0 0  9999
2 32276  66.0953   5.1196 0009850 342.0350 102.4573  2.13103411113746
COSMOS 2434 (721)       
1 32393U 07065A   22158.12284789  .00000009  00000+0  00000+0 0  9994
2 32393  64.3869 241.7800 0002488  97.0169  47.9929  2.13103197112454
COSMOS 2436 (723)       
1 32395U 07065C   22158.36558968  .00000010  00000+0  00000+0 0  9997
2 32395  64.3935 241.8282 0014841 359.3163 107.8062  2.13103037112399
COSMOS 2456 (730)       
1 36111U 09070A   22158.37958001  .00000071  00000+0  00000+0 0  9995
2 36111  64.3517 121.3997 0006035 305.2149 202.4581  2.13099279 97123
COSMOS 2457 (733)       
1 36112U 09070B   22157.98572302  .00000071  00000+0  00000+0 0  9998
2 36112  64.3347 121.2898 0003930 195.2627 137.4701  2.13101617 97113
COSMOS 2461 (735)       
1 36401U 10007B   22157.60902723 -.00000044  00000+0  00000+0 0  9995
2 36401  65.9684   3.8695 0021589  11.8070  66.9210  2.13103692 95462
COSMOS 2460 (732)       
1 36402U 10007C   22158.29056024 -.00000041  00000+0  00000+0 0  9993
2 36402  65.9547   3.7968 0002724  65.3250 124.5757  2.13106391 95474
COSMOS 2464 (736)       
1 37139U 10041C   22157.75404656  .00000009  00000+0  00000+0 0  9990
2 37139  63.9844 240.8725 0028287   9.4660  70.9109  2.13100837 91527
COSMOS 2476 (744)       
1 37867U 11064A   22158.54437286  .00000074  00000+0  00000+0 0  9999
2 37867  64.6403 122.7474 0023036 241.6743 297.8464  2.13101776 82473
COSMOS 2477 (745)       
1 37868U 11064B   22158.18518292  .00000074  00000+0  00000+0 0  9997
2 37868  64.6481 122.8238 0020332 242.9648 199.1163  2.13101690 82423
COSMOS 2475 (743)       
1 37869U 11064C   22158.37222394  .00000075  00000+0  00000+0 0  9995
2 37869  64.6562 122.8247 0024979 258.8941 284.6772  2.13101998 82435
COSMOS 2485 (747)       
1 39155U 13019A   22158.32847690  .00000075  00000+0  00000+0 0  9994
2 39155  64.8042 123.1805 0023284 237.3583 180.9263  2.13101923 70940
COSMOS 2492 (754)       
1 39620U 14012A   22157.47790677 -.00000045  00000+0  00000+0 0  9990
2 39620  65.8421   3.5062 0012679 334.0884 186.1646  2.13103188 63872
COSMOS 2500 (755)       
1 40001U 14032A   22158.18139876 -.00000041  00000+0  00000+0 0  9990
2 40001  65.7825   3.3446 0004738 181.8317  16.8126  2.13102403 62100
COSMOS 2501 (702K)      
1 40315U 14075A   22158.17740181  .00000009  00000+0  00000+0 0  9994
2 40315  63.6918 241.5301 0018556 209.0474 154.4666  2.13101618 58519
COSMOS 2514 (751)       
1 41330U 16008A   22158.15214687 -.00000042  00000+0  00000+0 0  9993
2 41330  65.5815   3.0404 0008336 200.3001 159.7145  2.13102839 49273
COSMOS 2516 (753)       
1 41554U 16032A   22158.32953005  .00000009  00000+0  00000+0 0  9993
2 41554  63.9163 241.7978 0014398 214.8182 183.7953  2.13106459 46881
COSMOS 2522 (752)       
1 42939U 17055A   22157.67376863  .00000008  00000+0  00000+0 0  9994
2 42939  64.1522 242.2123 0007855 239.8127 232.6904  2.13101892 36622
COSMOS 2527 (756)       
1 43508U 18053A   22157.94441263  .00000075  00000+0  00000+0 0  9997
2 43508  64.9676 123.1912 0009483 243.6736 108.5700  2.13102500 30912
COSMOS 2529 (757)       
1 43687U 18086A   22157.81615847  .00000008  00000+0  00000+0 0  9994
2 43687  64.3679 242.5209 0009641 264.0754 273.1906  2.13102148 27938
COSMOS 2534 (758)       
1 44299U 19030A   22157.40010498  .00000008  00000+0  00000+0 0  9990
2 44299  64.4380 242.4173 0012093 285.8727  66.7955  2.13102064 23565
COSMOS 2544 (759)       
1 44850U 19088A   22158.52395428  .00000076  00000+0  16595+1 0  9991
2 44850  64.9525 123.0249 0014335 264.4055 215.9245  2.13102440 19361
COSMOS 2545 (760)       
1 45358U 20018A   22158.27092213 -.00000043  00000+0  00000+0 0  9996
2 45358  64.9190   3.6527 0006480 250.7509 244.9429  2.13102672 17315
COSMOS 2547 (705K)      
1 46805U 20075A   22158.09815000  .00000009  00000+0  00000+0 0  9995
2 46805  64.6622 241.8167 0007169 243.3370 332.5059  2.13103241 12552
